_id,category,image,latitude,longitude,merchant_address,merchant_name,service_id,store_address,store_id,store_name
ObjectId(5d902687925a7de0dd36b1bb),Coffee chains and Milk tea,https://gigamall.com.vn/data/2019/09/20/14182535_LOGO-STARBUCKS-500x500.jpg,10.771896,106.661698,"18 Nguyễn Xiển, Phường Thanh Xuân Nam, Quận Thanh Xuân, Hà Nội, VIỆT NAM",Bobapop 18 Nguyễn Xiển,5654538597012118714,MOMOV5JU20180425,656049492680805630,bobapop18nx
ObjectId(5d902687925a7de0dd36b1ba),Coffee chains and Milk tea,https://gigamall.com.vn/data/2019/09/17/18124154_LOGO-KFC-500x500.jpg,10.771896,106.661698,"181 Minh Phụng, P.9, Quận 6",Bobapop 181 Minh Phụng,5654538597012118714,MOMOV5JU20180425,656049492680805630,bobapop181mp
ObjectId(5d902687925a7de0dd36b1b9),Coffee chains and Milk tea,https://gigamall.com.vn/data/2019/09/20/14514819_LOGO-THE-PIZZA-COMPANY-500x500.jpg,10.771896,106.661698,"145 Lê Lợi, Phường Trần Hưng Đạo, Thành phố Quy Nhơn, Bình Định, VIỆT NAM","Bobapop  145 Lê Lợi, TP Quy Nhơn, tỉnh Bình Định",5654538597012118714,MOMOV5JU20180425,656049492680805630,bbpleloi
ObjectId(5d902687925a7de0dd36b1b8),Coffee chains and Milk tea,https://gigamall.com.vn/data/2019/09/17/15592412_LOGO-BASKINROBBIN-500x500.jpg,10.771896,106.661698,"76 Bàu Cát, P14, Quận Tân Bình, TP.HCM",Bobapop 76 Bàu Cát,5654538597012118714,MOMOV5JU20180425,656049492680805630,bobapop76bc
ObjectId(5d902687925a7de0dd36b1b7),Coffee chains and Milk tea,http://www.thegardenmall.vn/upload/products/235324840940.jpg,10.771896,106.661698,"119/121 Tôn Đức Thắng, Phường 1, Thành phố Cao Lãnh, Đồng Tháp, VIỆT NAM",119/121 Tôn Đức Thắng,5654538597012118714,MOMOV5JU20180425,656049492680805630,bbptonducthang
ObjectId(5d902687925a7de0dd36b1b6),Coffee chains and Milk tea,https://gigamall.com.vn/data/2019/05/06/10385426_logo-bobapop-500x500.jpg,10.771896,106.661698,"59 – 61 Lê Thúc Hoạch, P. Phú Thọ Hòa, Quận Bình Tân, TP.HCM",Bobapop 59 – 61 Lê Thúc Hoạch,5654538597012118714,MOMOV5JU20180425,656049492680805630,bobapop59lth
ObjectId(5d902687925a7de0dd36b1b5),Coffee chains and Milk tea,https://upload.wikimedia.org/wikipedia/commons/6/69/Gong_Cha_logo_20130427.jpg,10.771896,106.661698,"85A Bình Phú , P.11, Quận 6",Bobapop 85A Bình Phú,5654538597012118714,MOMOV5JU20180425,656049492680805630,bobapop85abp
ObjectId(5d902687925a7de0dd36b1b4),Coffee chains and Milk tea,https://gigamall.com.vn/data/2019/09/17/18124154_LOGO-KFC-500x500.jpg,10.771896,106.661698,"K19 Lý Thường Kiệt, Phường Thống Nhất, Thành phố Buôn Ma Thuột, ĐẮK LẮK, VIỆT NAM"," Bobapop K19 Lý Thường Kiệt, TP Buôn Ma Thuột, Đăk Lăk ",5654538597012118714,MOMOV5JU20180425,656049492680805630,bbplythuongkiet
ObjectId(5d902687925a7de0dd36b1b3),Coffee chains and Milk tea,https://gigamall.com.vn/data/2019/09/17/17502307_LOGO-HOTPOT-STORY-500x500.jpg,10.771896,106.661698,"415 Lê Văn Sỹ, P.2, Quận Tân Bình, TP.HCM",Bobapop 415 Lê Văn Sỹ,5654538597012118714,MOMOV5JU20180425,656049492680805630,bobapop415lvs
ObjectId(5d902687925a7de0dd36b1b2),Coffee chains and Milk tea,https://nhanlucnganhluat.vn/uploads/images/AFCBE6B2/logo/2018-09/family%20mart2.jpg,10.771896,106.661698,"61 Quốc Lộ 1A, khu phố 4, Thị trấn Bến Lức, Huyện Bến Lức, Tỉnh Long An, VIỆT NAM",Bobapop Bến Lức,5654538597012118714,MOMOV5JU20180425,656049492680805630,bobapopbl
ObjectId(5d902687925a7de0dd36b1b1),Coffee chains and Milk tea,https://i.pinimg.com/originals/04/83/d1/0483d14533e9d19e635923cdc21ee439.jpg,10.771896,106.661698,"84 Tản Đà, P.11, Quận 5",Bobapop 84 Tản Đà,5654538597012118714,MOMOV5JU20180425,656049492680805630,bobapop84td
ObjectId(5d902687925a7de0dd36b1b0),Coffee chains and Milk tea,http://www.thegardenmall.vn/upload/products/235324840940.jpg,10.771896,106.661698,"442  Nguyễn Văn  Cừ, Phường Gia Thụy, Quận Long Biên, Hà Nội, VIỆT NAM",Bobapop 442 Nguyễn Văn Cừ,5654538597012118714,MOMOV5JU20180425,656049492680805630,bobapop442nvc
ObjectId(5d902687925a7de0dd36b1af),Coffee chains and Milk tea,https://gigamall.com.vn/data/2019/09/17/18124154_LOGO-KFC-500x500.jpg,10.771896,106.661698,"145 Trần Hưng Đạo, Phường Cẩm Phô, Thành phố Hội An, Quảng Nam, VIỆT NAM"," 145A Trần Hưng Đạo, Tp. Hội An",5654538597012118714,MOMOV5JU20180425,656049492680805630,bbp145tranhungdao
ObjectId(5d902687925a7de0dd36b1ae),Coffee chains and Milk tea,https://gigamall.com.vn/data/2019/09/17/17274498_LOGO-HIGHLANDS-500x500.jpg,10.771896,106.661698,"30 Tô Ký, Phường Tân Chánh Hiệp, Quận 12, Thành Phố Hồ Chí Minh, VIỆT NAM",Bobapop 30 Tô Ký,5654538597012118714,MOMOV5JU20180425,656049492680805630,bp30toky
ObjectId(5d902687925a7de0dd36b1ad),Coffee chains and Milk tea,http://www.thegardenmall.vn/upload/products/235324840940.jpg,10.771896,106.661698,"4A/2 Khu phố 7 Đồng Khởi, Phường Tam Hiệp, Thành phố Biên Hòa, Đồng Nai, VIỆT NAM","Bobapop 4A/2 Khu phố 7, Đường Đồng Khởi, Đồng Nai",5654538597012118714,MOMOV5JU20180425,656049492680805630,bbpdongkhoi
ObjectId(5d902687925a7de0dd36b1ac),Coffee chains and Milk tea,https://gigamall.com.vn/data/2019/09/20/14514819_LOGO-THE-PIZZA-COMPANY-500x500.jpg,10.771896,106.661698,"974 CMT8, P5, Quận Tân Bình, TP.HCM",Bobapop 974 CMT8,5654538597012118714,MOMOV5JU20180425,656049492680805630,bobapop974cmt8
ObjectId(5d902687925a7de0dd36b1ab),Coffee chains and Milk tea,https://gigamall.com.vn/data/2019/09/17/17274498_LOGO-HIGHLANDS-500x500.jpg,10.771896,106.661698,"33 Trần Quốc Hoàng, P.4, Tân Bình, TP.HCM",Bobapop 33 Trần Quốc Hoàng,5654538597012118714,MOMOV5JU20180425,656049492680805630,bobapop33tqh
ObjectId(5d902687925a7de0dd36b1aa),Coffee chains and Milk tea,https://nhanlucnganhluat.vn/uploads/images/AFCBE6B2/logo/2018-09/family%20mart2.jpg,10.771896,106.661698,"559 Huỳnh Tấn Phát, P. Tân Thuận Đông, Quân 7",Bobapop 559 Huỳnh Tấn Phát,5654538597012118714,MOMOV5JU20180425,656049492680805630,bobapop559htp
ObjectId(5d902687925a7de0dd36b1a9),Coffee chains and Milk tea,https://upload.wikimedia.org/wikipedia/commons/6/69/Gong_Cha_logo_20130427.jpg,10.771896,106.661698,"24 Huỳnh Thúc Kháng, Quận 1",Bobapop 24 Huỳnh Thúc Kháng,5654538597012118714,MOMOV5JU20180425,656049492680805630,bobapop24htk
ObjectId(5d902687925a7de0dd36b1a8),Coffee chains and Milk tea,https://gigamall.com.vn/data/2019/09/17/15592412_LOGO-BASKINROBBIN-500x500.jpg,10.771896,106.661698,"28 Phạm Thái Bường, Phường 1, Thành phố Trà Vinh, Trà Vinh, VIỆT NAM"," Bobapop 28 Phạm Thái Bường, Phường 1, Thành Phố Trà Vinh ",5654538597012118714,MOMOV5JU20180425,656049492680805630,bbpphamthaibuong
ObjectId(5d902687925a7de0dd36b1a7),Coffee chains and Milk tea,https://nhanlucnganhluat.vn/uploads/images/AFCBE6B2/logo/2018-09/family%20mart2.jpg,10.771896,106.661698,"238 Nguyễn Duy Trinh, Phường Bình Trưng Tây, Quận 2, Thành Phố Hồ Chí Minh, VIỆT NAM",Bobapop 238 Nguyễn Duy Trinh,5654538597012118714,MOMOV5JU20180425,656049492680805630,bp238nguyenduytrinh
ObjectId(5d902687925a7de0dd36b1a6),Coffee chains and Milk tea,https://gigamall.com.vn/data/2019/09/17/17502307_LOGO-HOTPOT-STORY-500x500.jpg,10.771896,106.661698,"120 Tân Mai, Phường Tân Mai, Quận Hoàng Mai, Hà Nội, VIỆT NAM",Bobapop 120 Tân Mai,5654538597012118714,MOMOV5JU20180425,656049492680805630,bobapop120tm
ObjectId(5d902687925a7de0dd36b1a5),Coffee chains and Milk tea,http://vislogo.com.vn/upload/image/pizzanew.jpg,10.771896,106.661698,"922F Trần Hưng Đạo, Phường 5, Thành phố Mỹ Tho, Tiền Giang, VIỆT NAM","Bobapop 922F Trần Hưng Đạo, P5, Mỹ Tho, Tiền Giang ",5654538597012118714,MOMOV5JU20180425,656049492680805630,bbptranhungdao
ObjectId(5d902687925a7de0dd36b1a4),Coffee chains and Milk tea,https://nhanlucnganhluat.vn/uploads/images/AFCBE6B2/logo/2018-09/family%20mart2.jpg,10.771896,106.661698,"24 Nguyễn Xuân Thoại, Phường Mỹ An, Quận Ngũ Hành Sơn, Đà Nẵng, VIỆT NAM",Bobapop 24 Nguyễn Xuân Thoại,5654538597012118714,MOMOV5JU20180425,656049492680805630,bbpnguyenxuanthoai
ObjectId(5d902687925a7de0dd36b1a3),Coffee chains and Milk tea,https://gigamall.com.vn/data/2019/05/06/10385426_logo-bobapop-500x500.jpg,10.771896,106.661698,"Shophouse PG2-05A Vincom Plaza 55  Phạm Thái Bường, Phường 4, Thành phố Vĩnh Long, Vĩnh Long, VIỆT NAM",Bobapop Shophouse PG2-05A Vincom Plaza Vĩnh Long,5654538597012118714,MOMOV5JU20180425,656049492680805630,bbpvincom
ObjectId(5d902687925a7de0dd36b1a2),Coffee chains and Milk tea,https://gigamall.com.vn/data/2019/09/17/17502307_LOGO-HOTPOT-STORY-500x500.jpg,10.771896,106.661698,"1B01 1B01 Tòa nhà CT2B, khu đô thị Tân Tây Đô, Thị trấn Phùng, Huyện Đan Phượng, Hà Nội, VIỆT NAM",Bobapop 1B01 Tòa nhà CT2B,5654538597012118714,MOMOV5JU20180425,656049492680805630,bbptantaydo
ObjectId(5d902687925a7de0dd36b1a1),Coffee chains and Milk tea,https://i.pinimg.com/originals/04/83/d1/0483d14533e9d19e635923cdc21ee439.jpg,10.771896,106.661698,"124 Nguyễn Văn Đậu, Phường 7, Quận Bình Thạnh, Thành Phố Hồ Chí Minh, VIỆT NAM","Bobapop 124 Nguyễn Văn Đậu, Phường 7, Quận Bình Thạnh.",5654538597012118714,MOMOV5JU20180425,656049492680805630,bbpnguyenvandau
ObjectId(5d902687925a7de0dd36b1a0),Coffee chains and Milk tea,http://www.thegardenmall.vn/upload/products/235324840940.jpg,10.771896,106.661698,"93  Lê Lợi, Phường 6, Thành phố Vũng Tàu, Bà Rịa - Vũng Tàu, VIỆT NAM","93 Lê Lợi, TP.Vũng Tàu ",5654538597012118714,MOMOV5JU20180425,656049492680805630,bbpleloivungtau
ObjectId(5d902687925a7de0dd36b19f),Coffee chains and Milk tea,http://www.thegardenmall.vn/upload/products/235324840940.jpg,10.771896,106.661698,"1 Mai Thị Tốt, Phường 2, Thành phố Tân An, Long An, VIỆT NAM","Bobapop số 1 Mai Thị Tốt, Phường 2, TP.Tân An, Tỉnh Long An ",5654538597012118714,MOMOV5JU20180425,656049492680805630,bbpmaithitot
ObjectId(5d902687925a7de0dd36b19e),Coffee chains and Milk tea,https://gigamall.com.vn/data/2019/09/17/18124154_LOGO-KFC-500x500.jpg,10.771896,106.661698,"611 30 tháng 4, Phường Rạch Dừa, Thành phố Vũng Tàu, Bà Rịa - Vũng Tàu, VIỆT NAM","Bobapop 611 đường 30/4, P.Rạch Dừa – TP Vũng Tàu ",5654538597012118714,MOMOV5JU20180425,656049492680805630,bbp30thang4vt
ObjectId(5d902687925a7de0dd36b19d),Coffee chains and Milk tea,https://gigamall.com.vn/data/2019/09/20/14514819_LOGO-THE-PIZZA-COMPANY-500x500.jpg,10.771896,106.661698,"70 Đường số 10, Cư Xá Rada, P.13",Bobapop 70 Đường số 10,5654538597012118714,MOMOV5JU20180425,656049492680805630,bobapop70ds10
ObjectId(5d902687925a7de0dd36b19c),Coffee chains and Milk tea,https://img.jamja.vn/jamja-prod/gcs_full_5767bcef6e0b496c23f865cc-2016-06-20-101928.jpg?cache=1,10.771896,106.661698,"3/6 A Tôn Đức Thắng, Phường Mỹ Bình, Thành phố Long Xuyên,An Giang",Bobapop 3/6 A Tôn Đức Thắng,5654538597012118714,MOMOV5JU20180425,656049492680805630,bbplx
ObjectId(5d902687925a7de0dd36b19b),Coffee chains and Milk tea,https://nhanlucnganhluat.vn/uploads/images/AFCBE6B2/logo/2018-09/family%20mart2.jpg,10.771896,106.661698,"33 Tân Hòa Đông, P.13, Quận Bình Tân",Bobapop 33 Tân Hòa Đông,5654538597012118714,MOMOV5JU20180425,656049492680805630,bobapop33thd
ObjectId(5d902687925a7de0dd36b19a),Coffee chains and Milk tea,https://img.jamja.vn/jamja-prod/gcs_full_5767bcef6e0b496c23f865cc-2016-06-20-101928.jpg?cache=1,10.771896,106.661698,"8 Thượng Đình, Phường Thượng Đình, Quận Thanh Xuân, Hà Nội, VIỆT NAM",Bobapop 8 Thượng Đình,5654538597012118714,MOMOV5JU20180425,656049492680805630,bobapop8td
ObjectId(5d902687925a7de0dd36b199),Coffee chains and Milk tea,http://www.thegardenmall.vn/upload/products/235324840940.jpg,10.771896,106.661698,"78 Bùi Thị Xuân, Phường 2, Thành phố Đà Lạt, Lâm Đồng, VIỆT NAM"," Bobapop 78 Bùi Thị Xuân, TP Đà Lạt",5654538597012118714,MOMOV5JU20180425,656049492680805630,bbpbuithixuan
ObjectId(5d902687925a7de0dd36b198),Coffee chains and Milk tea,https://i.pinimg.com/originals/04/83/d1/0483d14533e9d19e635923cdc21ee439.jpg,10.771896,106.661698,"P1.05, 53 Quang Trung, phường Hội Thương, Thành Phố Pleiku, Tỉnh Gia Lai, VIỆT NAM",Bobapop Gia Lai,5654538597012118714,MOMOV5JU20180425,656049492680805630,bobapop53qt
ObjectId(5d902687925a7de0dd36b197),Coffee chains and Milk tea,https://gigamall.com.vn/data/2019/09/17/18124154_LOGO-KFC-500x500.jpg,10.771896,106.661698,"13 Trần Quốc Toản, P.8, Quận 3",Bobapop 13 Trần Quốc Toản,5654538597012118714,MOMOV5JU20180425,656049492680805630,bobapop13tqt
ObjectId(5d902687925a7de0dd36b196),Coffee chains and Milk tea,http://vislogo.com.vn/upload/image/pizzanew.jpg,10.771896,106.661698,"376 Lãnh Binh Thăng. P11, Quận 11, TP.HCM",Bobapop 376 Lãnh Binh Thăng,5654538597012118714,MOMOV5JU20180425,656049492680805630,bobapop376lbt
ObjectId(5d902687925a7de0dd36b195),Coffee chains and Milk tea,https://gigamall.com.vn/data/2019/09/17/17502307_LOGO-HOTPOT-STORY-500x500.jpg,10.771896,106.661698,"359 Đỗ Xuân Hợp, Phước Long B, Quận 9, TP.HCM",Bobapop 359 Đỗ Xuân Hợp,5654538597012118714,MOMOV5JU20180425,656049492680805630,bobapop359dxh
ObjectId(5d902687925a7de0dd36b194),Coffee chains and Milk tea,https://upload.wikimedia.org/wikipedia/commons/6/69/Gong_Cha_logo_20130427.jpg,10.771896,106.661698,"245 XVNT, P17, Quận Bình Thạnh, TP.HCM",Bobapop 245 XVNT,5654538597012118714,MOMOV5JU20180425,656049492680805630,bobapop245xvnt
ObjectId(5d902687925a7de0dd36b193),Coffee chains and Milk tea,http://www.thegardenmall.vn/upload/products/235324840940.jpg,10.771896,106.661698,"178 Nguyễn Văn Nghi, P.5, Quận Gò Vấp, TP.HCM",Bobapop 178 Nguyễn Văn Nghi,5654538597012118714,MOMOV5JU20180425,656049492680805630,bobapop178
ObjectId(5d902687925a7de0dd36b192),Coffee chains and Milk tea,,10.771896,106.661698,"D2, P.25, Quận Bình Thạnh, TP.HCM",Bobapop D2,5654538597012118714,MOMOV5JU20180425,656049492680805630,bobapopd2
ObjectId(5d902687925a7de0dd36b191),Coffee chains and Milk tea,https://nhanlucnganhluat.vn/uploads/images/AFCBE6B2/logo/2018-09/family%20mart2.jpg,10.771896,106.661698,"28 Nguyễn Văn Linh, Phường Nam Dương, Quận Hải Châu, Đà Nẵng, VIỆT NAM","Bobapop   28 Nguyễn Văn Linh, P. Nam Dương, Q. Hải Châu, Tp. Đà Nẵng",5654538597012118714,MOMOV5JU20180425,656049492680805630,bbpnguyenvanlinh
ObjectId(5d902687925a7de0dd36b190),Coffee chains and Milk tea,http://vislogo.com.vn/upload/image/pizzanew.jpg,10.771896,106.661698,"295 Hoàng Diệu, P.6, Quận 4",Bobapop 295 Hoàng Diệu,5654538597012118714,MOMOV5JU20180425,656049492680805630,bobapop295hd
ObjectId(5d902687925a7de0dd36b18f),Coffee chains and Milk tea,https://gigamall.com.vn/data/2019/09/17/17502307_LOGO-HOTPOT-STORY-500x500.jpg,10.771896,106.661698,"95 Hậu Giang. P.5, Quận 6",Bobapop 95 Hậu Giang,5654538597012118714,MOMOV5JU20180425,656049492680805630,bobapop95hg
ObjectId(5d902687925a7de0dd36b18e),Coffee chains and Milk tea,https://gigamall.com.vn/data/2019/09/17/17502307_LOGO-HOTPOT-STORY-500x500.jpg,10.771896,106.661698,"482 Tỉnh Lộ 10, Phường Bình Trị Đông, Quận Bình Tân, Thành Phố Hồ Chí Minh, VIỆT NAM",Bobapop 842 Tỉnh Lộ 10,5654538597012118714,MOMOV5JU20180425,656049492680805630,bp482tinhlo10
ObjectId(5d902687925a7de0dd36b18d),Coffee chains and Milk tea,https://gigamall.com.vn/data/2019/09/17/15592412_LOGO-BASKINROBBIN-500x500.jpg,10.771896,106.661698,"58 Phan Đình Phùng, Thành Phố Quãng Ngãi, VIỆT NAM",Bobapop 58 Phan Đình Phùng,5654538597012118714,MOMOV5JU20180425,656049492680805630,bobapop58pdp
ObjectId(5d902687925a7de0dd36b18c),Coffee chains and Milk tea,https://gigamall.com.vn/data/2019/09/17/17502307_LOGO-HOTPOT-STORY-500x500.jpg,10.771896,106.661698,"Số 8-9 ĐH Nông Lâm, Kp6, P.Linh Trung, Quận Thủ Đức, TP.HCM",Bobapop Số 8-9 ĐH Nông Lâm,5654538597012118714,MOMOV5JU20180425,656049492680805630,bobapopdhnl
ObjectId(5d902687925a7de0dd36b18b),Coffee chains and Milk tea,http://www.thegardenmall.vn/upload/products/235324840940.jpg,10.771896,106.661698,"321 Phạm Hùng, P.5, Quận 8",Bobapop 321 Phạm Hùng,5654538597012118714,MOMOV5JU20180425,656049492680805630,bobapop321ph
ObjectId(5d902687925a7de0dd36b18a),Coffee chains and Milk tea,https://gigamall.com.vn/data/2019/09/17/15592412_LOGO-BASKINROBBIN-500x500.jpg,10.771896,106.661698,"206 Nguyễn Tri Phương, Phường 4, Quận 10, Thành Phố Hồ Chí Minh, VIỆT NAM",Bobapop 206 Nguyễn Tri Phương,5654538597012118714,MOMOV5JU20180425,656049492680805630,bobapop220ntp
ObjectId(5d902687925a7de0dd36b189),Coffee chains and Milk tea,http://www.thegardenmall.vn/upload/products/235324840940.jpg,10.771896,106.661698,"Cresent Mall 101 Tôn Dật Tiên, PMH.",Bobapop Cresent Mall 101 Tôn Dật Tiên,5654538597012118714,MOMOV5JU20180425,656049492680805630,bobapopcm
ObjectId(5d902687925a7de0dd36b188),Coffee chains and Milk tea,https://gigamall.com.vn/data/2019/09/17/18124154_LOGO-KFC-500x500.jpg,10.771896,106.661698,"485 Sư Vạn Hạnh, P12, Quận 10, TP.HCM",Bobapop 485 Sư Vạn Hạnh,5654538597012118714,MOMOV5JU20180425,656049492680805630,bobapop485svh
ObjectId(5d902687925a7de0dd36b187),Coffee chains and Milk tea,https://img.jamja.vn/jamja-prod/gcs_full_5767bcef6e0b496c23f865cc-2016-06-20-101928.jpg?cache=1,10.771896,106.661698,"295 Lê Văn Sỹ, Phường 13, Quận 3, Thành Phố Hồ Chí Minh, VIỆT NAM",Bobapop 295 Lê Văn Sỹ,5654538597012118714,MOMOV5JU20180425,656049492680805630,bobapop295lvs
ObjectId(5d902687925a7de0dd36b186),Coffee chains and Milk tea,https://gigamall.com.vn/data/2019/09/20/14514819_LOGO-THE-PIZZA-COMPANY-500x500.jpg,10.771896,106.661698,"56 Nguyễn Phong Sắc, Phường Dịch Vọng Hậu, Quận Cầu Giấy, Hà Nội, VIỆT NAM",Bobapop 56 Nguyễn Phong Sắc,5654538597012118714,MOMOV5JU20180425,656049492680805630,bobapop56nps
ObjectId(5d902687925a7de0dd36b185),Coffee chains and Milk tea,https://img.jamja.vn/jamja-prod/gcs_full_5767bcef6e0b496c23f865cc-2016-06-20-101928.jpg?cache=1,10.771896,106.661698,"245/1 Nguyễn Trãi, P. Nguyễn Cư Trinh.Quận 1",Bobapop 245/1 Nguyễn Trãi,5654538597012118714,MOMOV5JU20180425,656049492680805630,bobapopnt
ObjectId(5d902687925a7de0dd36b184),Coffee chains and Milk tea,https://nhanlucnganhluat.vn/uploads/images/AFCBE6B2/logo/2018-09/family%20mart2.jpg,10.771896,106.661698,"A29/4c1 Nguyễn Văn Quá, Phường Đông Hưng Thuận, Quận 12, Thành Phố Hồ Chí Minh, VIỆT NAM",Bobapop Nguyễn Văn Quá,5654538597012118714,MOMOV5JU20180425,656049492680805630,bobapopa29nvq
ObjectId(5d902687925a7de0dd36b183),Coffee chains and Milk tea,https://nhanlucnganhluat.vn/uploads/images/AFCBE6B2/logo/2018-09/family%20mart2.jpg,10.771896,106.661698," 1F25 Tầng 1, Siêu Thị Lotte Mart Cần Thơ Mậu Thân, Phường An Hòa, Quận Ninh Kiều, Cần Thơ, VIỆT NAM","Bobapop 1F25 Tầng 1, Siêu Thị Lotte Mart Cần Thơ",5654538597012118714,MOMOV5JU20180425,656049492680805630,bbpmauthan
ObjectId(5d902687925a7de0dd36b182),Coffee chains and Milk tea,http://vislogo.com.vn/upload/image/pizzanew.jpg,10.771896,106.661698,"7B Lê Đại Hành, Phường Bùi Thị Xuân, Quận Hai Bà Trưng, Hà Nội, VIỆT NAM",Bobapop 7B Lê Đại Hành,5654538597012118714,MOMOV5JU20180425,656049492680805630,bobapop7bldh
ObjectId(5d902687925a7de0dd36b181),Coffee chains and Milk tea,https://gigamall.com.vn/data/2019/05/06/10385426_logo-bobapop-500x500.jpg,10.771896,106.661698," 263, tổ 95, khu 10 Thích Quảng Đức , Phường Chánh Nghĩa, Thành phố Thủ Dầu Một, Bình Dương, VIỆT NAM","Bobapop Thích Quảng Đức,Phường Chánh Nghĩa,Tp.Thủ Dầu Một, Tinh Bình Dương",5654538597012118714,MOMOV5JU20180425,656049492680805630,bbpthichquangduc
ObjectId(5d902687925a7de0dd36b180),Coffee chains and Milk tea,https://gigamall.com.vn/data/2019/09/20/14182535_LOGO-STARBUCKS-500x500.jpg,10.771896,106.661698,"496 Nguyễn oanh, Phường 6, Quận Gò Vấp, Thành Phố Hồ Chí Minh, VIỆT NAM",Bobapop 496 Nguyễn Oanh,5654538597012118714,MOMOV5JU20180425,656049492680805630,bp496nguyenoanh
ObjectId(5d902687925a7de0dd36b17f),Coffee chains and Milk tea,https://gigamall.com.vn/data/2019/09/17/17502307_LOGO-HOTPOT-STORY-500x500.jpg,10.771896,106.661698,"15 Nguyễn Thị Minh Khai, P.Bến Nghé",Bobapop 15 Nguyễn Thị Minh Khai,5654538597012118714,MOMOV5JU20180425,656049492680805630,bobapop24ntmk
ObjectId(5d902687925a7de0dd36b17e),Coffee chains and Milk tea,https://gigamall.com.vn/data/2019/09/20/14182535_LOGO-STARBUCKS-500x500.jpg,10.771896,106.661698,"166 Ô Chợ Dừa, Phường Ô Chợ Dừa, Quận Đống Đa, Hà Nội, VIỆT NAM",Bobapop 166b Ô Chợ Dừa,5654538597012118714,MOMOV5JU20180425,656049492680805630,bobapop166bocd
ObjectId(5d902687925a7de0dd36b17d),Coffee chains and Milk tea,https://img.jamja.vn/jamja-prod/gcs_full_5767bcef6e0b496c23f865cc-2016-06-20-101928.jpg?cache=1,10.771896,106.661698,"số 88 Song Hành, Phường An Phú, Quận 2, Thành Phố Hồ Chí Minh, VIỆT NAM",Bobapop Estella Place,5654538597012118714,MOMOV5JU20180425,656049492680805630,bpestella
ObjectId(5d902687925a7de0dd36b17c),Coffee chains and Milk tea,https://gigamall.com.vn/data/2019/09/20/14514819_LOGO-THE-PIZZA-COMPANY-500x500.jpg,10.771896,106.661698,"59 Vườn Lài, Phường Phú Thọ Hòa, Quận Tân Phú, Thành Phố Hồ Chí Minh, VIỆT NAM",Bobapop 59 Vườn lài,5654538597012118714,MOMOV5JU20180425,656049492680805630,bp59vuonlai
ObjectId(5d902687925a7de0dd36b17b),Coffee chains and Milk tea,https://gigamall.com.vn/data/2019/09/20/14514819_LOGO-THE-PIZZA-COMPANY-500x500.jpg,10.771896,106.661698,"515 Tùng Thiện Vương, P.12, Quận 8",Bobapop 515 Tùng Thiện Vương,5654538597012118714,MOMOV5JU20180425,656049492680805630,bobapop515ttv
ObjectId(5d902687925a7de0dd36b17a),Coffee chains and Milk tea,https://gigamall.com.vn/data/2019/09/17/17274498_LOGO-HIGHLANDS-500x500.jpg,10.771896,106.661698,"290 Thái Hà, Phường Ô Chợ Dừa, Quận Đống Đa, Hà Nội, VIỆT NAM",Bobapop 290 Thái Hà,5654538597012118714,MOMOV5JU20180425,656049492680805630,bobapop290th
ObjectId(5d902687925a7de0dd36b179),Coffee chains and Milk tea,https://img.jamja.vn/jamja-prod/gcs_full_5767bcef6e0b496c23f865cc-2016-06-20-101928.jpg?cache=1,10.771896,106.661698,"607 Nguyễn Thị Thập, Phường Tân Hưng, Quận 7, Thành Phố Hồ Chí Minh, VIỆT NAM",Bobapop 607 Nguyễn Thị Thập,5654538597012118714,MOMOV5JU20180425,656049492680805630,bobapop607ntt
ObjectId(5d902687925a7de0dd36b178),Coffee chains and Milk tea,http://vislogo.com.vn/upload/image/pizzanew.jpg,10.771896,106.661698,"65 Lê Lợi (Sài Gòn Center), Quận 1",Bobapop 65 Lê Lợi (Sài Gòn Center),5654538597012118714,MOMOV5JU20180425,656049492680805630,bobapop65ll
ObjectId(5d902687925a7de0dd36b177),Coffee chains and Milk tea,https://gigamall.com.vn/data/2019/09/17/15592412_LOGO-BASKINROBBIN-500x500.jpg,10.771896,106.661698,"216 Trần Duy Hưng, Phường Trung Hoà, Quận Cầu Giấy, Hà Nội, VIỆT NAM",Bobapop 216 Trần Duy Hưng,5654538597012118714,MOMOV5JU20180425,656049492680805630,bobapop216tdh
ObjectId(5d902687925a7de0dd36b176),Coffee chains and Milk tea,https://gigamall.com.vn/data/2019/09/17/15592412_LOGO-BASKINROBBIN-500x500.jpg,10.771896,106.661698,"627 Lê Quang Định, P1, Quận Gò Vấp, TP.HCM",Bobapop 627 Lê Quang Định,5654538597012118714,MOMOV5JU20180425,656049492680805630,bobapop627lqd
ObjectId(5d902687925a7de0dd36b175),Coffee chains and Milk tea,https://img.jamja.vn/jamja-prod/gcs_full_5767bcef6e0b496c23f865cc-2016-06-20-101928.jpg?cache=1,10.771896,106.661698,"233 Trần Bình Trọng, Phường 4, Quận 5, Thành Phố Hồ Chí Minh, VIỆT NAM",Bobapop 233 Trần Bình Trọng,5654538597012118714,MOMOV5JU20180425,656049492680805630,bp233tranbinhtrong
ObjectId(5d902687925a7de0dd36b174),Coffee chains and Milk tea,,10.771896,106.661698,"207 Tôn Đức Thắng, Phường Phú Thủy, Thành Phố Phan Thiết, VIỆT NAM",Bobapop 207 Tôn Đức Thắng,5654538597012118714,MOMOV5JU20180425,656049492680805630,bobapop207tdt
ObjectId(5d902687925a7de0dd36b173),Coffee chains and Milk tea,https://img.jamja.vn/jamja-prod/gcs_full_5767bcef6e0b496c23f865cc-2016-06-20-101928.jpg?cache=1,10.771896,106.661698,"692 Lê Đức Thọ, P.15, Quận Gò Vấp, TP.HCM",Bobapop 692 Lê Đức Thọ,5654538597012118714,MOMOV5JU20180425,656049492680805630,bobapop692ldt
ObjectId(5d902687925a7de0dd36b172),Coffee chains and Milk tea,http://vislogo.com.vn/upload/image/pizzanew.jpg,10.771896,106.661698,"239  Phan Văn Trị, Phường 11, Quận Bình Thạnh, Thành Phố Hồ Chí Minh, VIỆT NAM",Bobapop 239 Phan Văn Trị,5654538597012118714,MOMOV5JU20180425,656049492680805630,bobapop223pvt
ObjectId(5d902687925a7de0dd36b171),Coffee chains and Milk tea,https://nhanlucnganhluat.vn/uploads/images/AFCBE6B2/logo/2018-09/family%20mart2.jpg,10.771896,106.661698,"96 Nguyển An Ninh, Phường Dĩ An, Thị xã Dĩ An, Bình Dương, VIỆT NAM",Bobapop 96 Nguyễn An Ninh Tỉnh Bình Dương,5654538597012118714,MOMOV5JU20180425,656049492680805630,bbpnguyenanninh
ObjectId(5d902687925a7de0dd36b170),Coffee chains and Milk tea,https://gigamall.com.vn/data/2019/09/17/15592412_LOGO-BASKINROBBIN-500x500.jpg,10.771896,106.661698,"160 Lạc Trung, phường Vĩnh Tuy, quận Hai Bà Trưng, Hà Nội, Việt Nam",Bobapop 160 Lạc Trung,5654538597012118714,MOMOV5JU20180425,656049492680805630,bobapop232lt
ObjectId(5d902687925a7de0dd36b16f),Coffee chains and Milk tea,https://i.pinimg.com/originals/04/83/d1/0483d14533e9d19e635923cdc21ee439.jpg,10.771896,106.661698,"188 Lê Thanh Nghị, Phường Đồng Tâm, Quận Hai Bà Trưng, Hà Nội, VIỆT NAM",Bobapop 188 Lê Thanh Nghị,5654538597012118714,MOMOV5JU20180425,656049492680805630,bobapop188ltn
ObjectId(5d902687925a7de0dd36b16e),Coffee chains and Milk tea,https://gigamall.com.vn/data/2019/05/06/10385426_logo-bobapop-500x500.jpg,10.771896,106.661698,"10 Chùa Láng, Phường Trung Liệt, Quận Đống Đa, Hà Nội, VIỆT NAM",Bobapop 10 Chùa Láng,5654538597012118714,MOMOV5JU20180425,656049492680805630,bobapop10cl
ObjectId(5d902687925a7de0dd36b16d),Coffee chains and Milk tea,https://upload.wikimedia.org/wikipedia/commons/6/69/Gong_Cha_logo_20130427.jpg,10.771896,106.661698,"5 Lê Văn Quới, Phường Bình Trị Đông, Quận Bình Tân, Thành Phố Hồ Chí Minh, VIỆT NAM",Bobapop 5 Lê Văn Quới,5654538597012118714,MOMOV5JU20180425,656049492680805630,bbp5levanquoi
ObjectId(5d902687925a7de0dd36b16c),Coffee chains and Milk tea,https://gigamall.com.vn/data/2019/09/20/14182535_LOGO-STARBUCKS-500x500.jpg,10.771896,106.661698,"109 Hồng Bàng, Phường Tân Lập, Thành phố Nha Trang, Khánh Hòa, VIỆT NAM"," 109 Hồng Bàng, Phường Tân Lập, TP Nha Trang, Tỉnh Khánh Hòa",5654538597012118714,MOMOV5JU20180425,656049492680805630,bbphongbang
ObjectId(5d902687925a7de0dd36b16b),Coffee chains and Milk tea,https://gigamall.com.vn/data/2019/05/06/10385426_logo-bobapop-500x500.jpg,10.771896,106.661698,"64 Trần Phú, Thành Phố Thanh Hoá, Tỉnh Thanh Hóa, VIỆT NAM",Bobapop 64 Trần Phú,5654538597012118714,MOMOV5JU20180425,656049492680805630,bobapop64tp
ObjectId(5d902687925a7de0dd36b16a),Coffee chains and Milk tea,,10.771896,106.661698,"Shop 6, TTTM BIG C Mỹ Tho, 545 Lê Văn Phẩm, Phường 5, Thành Phố Mỹ Tho, Tỉnh Tiền Giang, VIỆT NAM",Bobapop 545 Lê Văn Phẩm,5654538597012118714,MOMOV5JU20180425,656049492680805630,bobapop545lvp
ObjectId(5d902687925a7de0dd36b169),Coffee chains and Milk tea,http://www.thegardenmall.vn/upload/products/235324840940.jpg,10.771896,106.661698,"7 Phú Lợi, Phường Phú Lợi, Thành phố Thủ Dầu Một, Bình Dương, VIỆT NAM","Bobapop Số 7, đường Phú Lợi, phường Phú Lợi, TP.Thủ Dầu Một",5654538597012118714,MOMOV5JU20180425,656049492680805630,bbpphuloi
ObjectId(5d902687925a7de0dd36b168),Coffee chains and Milk tea,https://gigamall.com.vn/data/2019/09/17/15592412_LOGO-BASKINROBBIN-500x500.jpg,10.771896,106.661698,"273 Phan Xích Long, P2, Quận Phú Nhuận, TP.HCM",Bobapop 273 Phan Xích Long,5654538597012118714,MOMOV5JU20180425,656049492680805630,bobapop273pxl
ObjectId(5d902687925a7de0dd36b167),Coffee chains and Milk tea,https://gigamall.com.vn/data/2019/09/17/18124154_LOGO-KFC-500x500.jpg,10.771896,106.661698,"6 Hồ Tùng Mậu, Phường Mai Dịch, Quận Cầu Giấy, Hà Nội, VIỆT NAM",Bobapop 6 Hồ Tùng Mậu,5654538597012118714,MOMOV5JU20180425,656049492680805630,bobapop6htm
ObjectId(5d902687925a7de0dd36b166),Coffee chains and Milk tea,https://nhanlucnganhluat.vn/uploads/images/AFCBE6B2/logo/2018-09/family%20mart2.jpg,10.771896,106.661698,"115 Cao Thắng, P11, Quận 10, TP.HCM",Bobapop 115 Cao Thắng,5654538597012118714,MOMOV5JU20180425,656049492680805630,bobapop115ct
ObjectId(5d902687925a7de0dd36b165),Coffee chains and Milk tea,https://i.pinimg.com/originals/04/83/d1/0483d14533e9d19e635923cdc21ee439.jpg,10.771896,106.661698,"Gian hàng 04-21B, Tầng 4 tòa nhà GIGA MALL 240 – 242 Đường Phạm Văn Đồng, Hiệp Bình Chánh, QuậnThủ Đức, Thành Phố Hồ Chí Minh, VIỆT NAM",Bobapop Giga Mall,5654538597012118714,MOMOV5JU20180425,656049492680805630,bobapopggm
ObjectId(5d902687925a7de0dd36b164),Coffee chains and Milk tea,https://gigamall.com.vn/data/2019/05/06/10385426_logo-bobapop-500x500.jpg,10.771896,106.661698,"Emart – Lô F2-04, số 168 Phan Văn Trị, P.5, Quận Gò vấp, TP.HCM","Bobapop Emart – Lô F2-04, số 168 Phan Văn Trị",5654538597012118714,MOMOV5JU20180425,656049492680805630,bobapopemart
ObjectId(5d902687925a7de0dd36b163),Coffee chains and Milk tea,http://www.thegardenmall.vn/upload/products/235324840940.jpg,10.771896,106.661698,"355 Lũy Bán Bích, P.Hòa Thạnh, Quận  Tân Phú, TP.HCM",Bobapop 355 Lũy Bán Bích,5654538597012118714,MOMOV5JU20180425,656049492680805630,bobapop384lbb
ObjectId(5d902687925a7de0dd36b162),Coffee chains and Milk tea,http://www.thegardenmall.vn/upload/products/235324840940.jpg,10.771896,106.661698,"57 Nguyễn Đình Chiểu, Phường Vĩnh Thọ, Thành phố Nha Trang, Khánh Hòa, VIỆT NAM",Bobapop 57 Nguyễn Đình Chiểu,5654538597012118714,MOMOV5JU20180425,656049492680805630,bbp57nguyendinhchieu
ObjectId(5d902687925a7de0dd36b161),Coffee chains and Milk tea,https://gigamall.com.vn/data/2019/05/06/10385426_logo-bobapop-500x500.jpg,10.771896,106.661698,"07 Trần Hưng Đạo, P. Nguyễn Thái Bình",Bobapop 07 Trần Hưng Đạo,5654538597012118714,MOMOV5JU20180425,656049492680805630,bobapop07thd
ObjectId(5d902687925a7de0dd36b160),Coffee chains and Milk tea,https://gigamall.com.vn/data/2019/09/20/14182535_LOGO-STARBUCKS-500x500.jpg,10.771896,106.661698,"343 Quang Trung, P.10, Quận Gò Vấp, TP.HCM",Bobapop 343 Quang Trung,5654538597012118714,MOMOV5JU20180425,656049492680805630,bobapop343qt
ObjectId(5d902687925a7de0dd36b15f),Coffee chains and Milk tea,https://gigamall.com.vn/data/2019/09/20/14182535_LOGO-STARBUCKS-500x500.jpg,10.771896,106.661698,"8 Nguyễn Khang, Phường Yên Hoà, Quận Cầu Giấy, Hà Nội, VIỆT NAM",Bobapop 8 Nguyễn Khang,5654538597012118714,MOMOV5JU20180425,656049492680805630,bobapop8nk
ObjectId(5d902687925a7de0dd36b15e),Coffee chains and Milk tea,http://vislogo.com.vn/upload/image/pizzanew.jpg,10.771896,106.661698,"5B7  Phạm Ngọc Thạch, Phường Trung Liệt, Quận Đống Đa, Hà Nội, VIỆT NAM",Bobapop 5B7 Phạm Ngọc Thạch,5654538597012118714,MOMOV5JU20180425,656049492680805630,bobapop5b7pnt
ObjectId(5d902687925a7de0dd36b15d),Coffee chains and Milk tea,https://nhanlucnganhluat.vn/uploads/images/AFCBE6B2/logo/2018-09/family%20mart2.jpg,10.771896,106.661698,"50 Trần Phú, Phường Mộ Lao, Quận Hà Đông, Hà Nội, VIỆT NAM",Bobapop 50 Trần Phú,5654538597012118714,MOMOV5JU20180425,656049492680805630,bobapop50tp
ObjectId(5d902687925a7de0dd36b15c),Coffee chains and Milk tea,https://gigamall.com.vn/data/2019/09/17/18124154_LOGO-KFC-500x500.jpg,10.771896,106.661698,"204 Phan Trung, Phường Tân Tiến, Thành phố Biên Hòa, Đồng Nai, VIỆT NAM"," Bobapop 204 Phan Trung",5654538597012118714,MOMOV5JU20180425,656049492680805630,bbp30thang4
ObjectId(5d902687925a7de0dd36b15b),Coffee chains and Milk tea,http://www.thegardenmall.vn/upload/products/235324840940.jpg,10.771896,106.661698,"695 Lạc Long Quân, P10, Quận Tân Bình, TP.HCM",Bobapop 695 Lạc Long Quân,5654538597012118714,MOMOV5JU20180425,656049492680805630,bobapop695llq
ObjectId(5d902687925a7de0dd36b15a),Coffee chains and Milk tea,https://gigamall.com.vn/data/2019/09/17/17274498_LOGO-HIGHLANDS-500x500.jpg,10.771896,106.661698,"87 Phạm Văn Chiêu, Phường 14, Quận Gò Vấp, Thành Phố Hồ Chí Minh, VIỆT NAM","Bobapop 87 Phạm Văn Chiêu, Phường 14, Quận Gò Vấp.",5654538597012118714,MOMOV5JU20180425,656049492680805630,bbpphamvanchieu
ObjectId(5d902687925a7de0dd36b159),Coffee chains and Milk tea,https://gigamall.com.vn/data/2019/09/17/15592412_LOGO-BASKINROBBIN-500x500.jpg,10.771896,106.661698,"7 Trần Nguyên Hãn, Phường Đồng Xuân, Quận Hoàn Kiếm, Hà Nội, VIỆT NAM",Bobapop 7 Trần Nguyễn Hãn,5654538597012118714,MOMOV5JU20180425,656049492680805630,bobapop7tnh
ObjectId(5d902687925a7de0dd36b158),Coffee chains and Milk tea,http://vislogo.com.vn/upload/image/pizzanew.jpg,10.771896,106.661698,"151 Hoàng Diệu, P.Linh Trung, Quận Thủ Đức, TP.HCM",Bobapop 151 Hoàng Diệu,5654538597012118714,MOMOV5JU20180425,656049492680805630,bobapop151hd
